[{"insee_code": "34163", "city_code": "montarnaud", "zip_code": "34570", "label": "montarnaud", "latitude": "43.64698159", "longitude": "3.699675339", "department_name": "h\u00e9rault", "department_number": "34", "region_name": "occitanie", "region_geojson_name": "Occitanie"}, {"insee_code": "11196", "city_code": "laurac", "zip_code": "11270", "label": "laurac", "latitude": "43.229589617", "longitude": "1.96956529", "department_name": "aude", "department_number": "11", "region_name": "occitanie", "region_geojson_name": "Occitanie"}, {"insee_code": "34164", "city_code": "montaud", "zip_code": "34160", "label": "montaud", "latitude": "43.747691789", "longitude": "3.959411621", "department_name": "h\u00e9rault", "department_number": "34", "region_name": "occitanie", "region_geojson_name": "Occitanie"}, {"insee_code": "11201", "city_code": "leuc", "zip_code": "11250", "label": "leuc", "latitude": "43.14137015", "longitude": "2.33927573", "department_name": "aude", "department_number": "11", "region_name": "occitanie", "region_geojson_name": "Occitanie"}, {"insee_code": "34172", "city_code": "montpellier", "zip_code": "34090", "label": "montpellier", "latitude": "43.61335437", "longitude": "3.869264054", "department_name": "h\u00e9rault", "department_number": "34", "region_name": "occitanie", "region_geojson_name": "Occitanie"}, {"insee_code": "11202", "city_code": "leucate", "zip_code": "11370", "label": "leucate", "latitude": "42.899577824", "longitude": "3.025947838", "department_name": "aude", "department_number": "11", "region_name": "occitanie", "region_geojson_name": "Occitanie"}, {"insee_code": "34178", "city_code": "murviel les beziers", "zip_code": "34490", "label": "murviel les beziers", "latitude": "43.457899324", "longitude": "3.135240891", "department_name": "h\u00e9rault", "department_number": "34", "region_name": "occitanie", "region_geojson_name": "Occitanie"}, {"insee_code": "11206", "city_code": "limoux", "zip_code": "11300", "label": "limoux", "latitude": "43.049972342", "longitude": "2.239133252", "department_name": "aude", "department_number": "11", "region_name": "occitanie", "region_geojson_name": "Occitanie"}, {"insee_code": "08006", "city_code": "alland huy et sausseuil", "zip_code": "08130", "label": "alland huy et sausseuil", "latitude": "49.512260939", "longitude": "4.549472452", "department_name": "ardennes", "department_number": "08", "region_name": "grand est", "region_geojson_name": "Grand Est"}, {"insee_code": "34186", "city_code": "octon", "zip_code": "34800", "label": "octon", "latitude": "43.657457653", "longitude": "3.295728994", "department_name": "h\u00e9rault", "department_number": "34", "region_name": "occitanie", "region_geojson_name": "Occitanie"}, {"insee_code": "11244", "city_code": "montfort sur boulzane", "zip_code": "11140", "label": "montfort sur boulzane", "latitude": "42.730254653", "longitude": "2.308310399", "department_name": "aude", "department_number": "11", "region_name": "occitanie", "region_geojson_name": "Occitanie"}]